start=new Date('2022-10-18T00:00:00.000Z').valueOf();
sats=[{"PERIOD":"91.532","APOAPSIS":"350.494","MEAN_MOTION":"15.73216817","RCS_SIZE":"LARGE","MEAN_ELEMENT_THEORY":"SGP4","LAUNCH_DATE":"2022-09-24","MEAN_MOTION_DDOT":"0.0000000000000","NORAD_CAT_ID":"53894","PERIAPSIS":"348.930","OBJECT_ID":"2022-119J","REF_FRAME":"TEME","GP_ID":"215451554","TLE_LINE2":"2 53894  53.2152 139.4242 0001162  93.1103 196.5800 15.73216817  1305","MEAN_ANOMALY":"196.5800","TIME_SYSTEM":"UTC","FILE":"3620294","EPHEMERIS_TYPE":"0","CENTER_NAME":"EARTH","SITE":"AFETR","MEAN_MOTION_DOT":"-0.00035352","RA_OF_ASC_NODE":"139.4242","SEMIMAJOR_AXIS":"6727.847","DECAY_DATE":null,"EPOCH":"2022-10-17T22:00:00.999936","ECCENTRICITY":"0.00011620","ELEMENT_SET_NO":"999","INCLINATION":"53.2152","ARG_OF_PERICENTER":"93.1103","BSTAR":"-0.00024835000000","COUNTRY_CODE":"US","TLE_LINE1":"1 53894U 22119J   22290.91667824 -.00035352  00000-0 -24835-3 0  9997","CLASSIFICATION_TYPE":"U","OBJECT_TYPE":"PAYLOAD","REV_AT_EPOCH":"130","OBJECT_NAME":"STARLINK-5043"},{"PERIAPSIS":"348.935","MEAN_MOTION_DDOT":"0.0000000000000","NORAD_CAT_ID":"53895","MEAN_ANOMALY":"202.1847","TLE_LINE2":"2 53895  53.2154 139.4206 0001182  89.2785 202.1847 15.73210536  1309","GP_ID":"215452291","REF_FRAME":"TEME","OBJECT_ID":"2022-119K","MEAN_MOTION":"15.73210536","APOAPSIS":"350.525","PERIOD":"91.533","LAUNCH_DATE":"2022-09-24","MEAN_ELEMENT_THEORY":"SGP4","RCS_SIZE":"LARGE","OBJECT_TYPE":"PAYLOAD","CLASSIFICATION_TYPE":"U","OBJECT_NAME":"STARLINK-5032","REV_AT_EPOCH":"130","DECAY_DATE":null,"SEMIMAJOR_AXIS":"6727.865","RA_OF_ASC_NODE":"139.4206","SITE":"AFETR","MEAN_MOTION_DOT":"-0.00018085","FILE":"3620294","EPHEMERIS_TYPE":"0","TIME_SYSTEM":"UTC","CENTER_NAME":"EARTH","TLE_LINE1":"1 53895U 22119K   22290.91667824 -.00018085  00000-0 -12466-3 0  9999","COUNTRY_CODE":"US","BSTAR":"-0.00012466000000","ARG_OF_PERICENTER":"89.2785","INCLINATION":"53.2154","ECCENTRICITY":"0.00011820","EPOCH":"2022-10-17T22:00:00.999936","ELEMENT_SET_NO":"999"},{"OBJECT_NAME":"STARLINK-5037","REV_AT_EPOCH":"130","OBJECT_TYPE":"PAYLOAD","CLASSIFICATION_TYPE":"U","BSTAR":"-0.00028317000000","COUNTRY_CODE":"US","TLE_LINE1":"1 53896U 22119L   22290.91667824 -.00040213  00000-0 -28317-3 0  9990","INCLINATION":"53.2162","EPOCH":"2022-10-17T22:00:00.999936","ECCENTRICITY":"0.00021320","ELEMENT_SET_NO":"999","ARG_OF_PERICENTER":"2.6801","DECAY_DATE":null,"RA_OF_ASC_NODE":"139.4209","SEMIMAJOR_AXIS":"6727.834","MEAN_MOTION_DOT":"-0.00040213","SITE":"AFETR","FILE":"3620294","TIME_SYSTEM":"UTC","CENTER_NAME":"EARTH","EPHEMERIS_TYPE":"0","MEAN_ANOMALY":"289.9685","GP_ID":"215451807","TLE_LINE2":"2 53896  53.2162 139.4209 0002132   2.6801 289.9685 15.73221524  1308","OBJECT_ID":"2022-119L","REF_FRAME":"TEME","PERIAPSIS":"348.264","NORAD_CAT_ID":"53896","MEAN_MOTION_DDOT":"0.0000000000000","LAUNCH_DATE":"2022-09-24","RCS_SIZE":"LARGE","MEAN_ELEMENT_THEORY":"SGP4","APOAPSIS":"351.133","MEAN_MOTION":"15.73221524","PERIOD":"91.532"},{"MEAN_ELEMENT_THEORY":"SGP4","RCS_SIZE":"LARGE","LAUNCH_DATE":"2022-09-24","PERIOD":"91.532","MEAN_MOTION":"15.73224185","APOAPSIS":"350.666","REF_FRAME":"TEME","OBJECT_ID":"2022-119M","MEAN_ANOMALY":"155.6894","TLE_LINE2":"2 53897  53.2159 139.4239 0001449 134.5658 155.6894 15.73224185  1300","GP_ID":"215452139","MEAN_MOTION_DDOT":"0.0000000000000","NORAD_CAT_ID":"53897","PERIAPSIS":"348.716","ARG_OF_PERICENTER":"134.5658","EPOCH":"2022-10-17T22:00:00.999936","ECCENTRICITY":"0.00014490","INCLINATION":"53.2159","ELEMENT_SET_NO":"999","TLE_LINE1":"1 53897U 22119M   22290.91667824 -.00022394  00000-0 -15540-3 0  9995","COUNTRY_CODE":"US","BSTAR":"-0.00015540000000","MEAN_MOTION_DOT":"-0.00022394","SITE":"AFETR","EPHEMERIS_TYPE":"0","FILE":"3620294","TIME_SYSTEM":"UTC","CENTER_NAME":"EARTH","DECAY_DATE":null,"SEMIMAJOR_AXIS":"6727.826","RA_OF_ASC_NODE":"139.4239","REV_AT_EPOCH":"130","OBJECT_NAME":"STARLINK-5035","CLASSIFICATION_TYPE":"U","OBJECT_TYPE":"PAYLOAD"},{"OBJECT_TYPE":"PAYLOAD","CLASSIFICATION_TYPE":"U","OBJECT_NAME":"STARLINK-5044","REV_AT_EPOCH":"130","DECAY_DATE":null,"SEMIMAJOR_AXIS":"6727.755","RA_OF_ASC_NODE":"139.4176","SITE":"AFETR","MEAN_MOTION_DOT":"-0.00081009","TIME_SYSTEM":"UTC","FILE":"3620294","EPHEMERIS_TYPE":"0","CENTER_NAME":"EARTH","COUNTRY_CODE":"US","TLE_LINE1":"1 53898U 22119N   22290.91667824 -.00081009  00000-0 -57710-3 0  9999","BSTAR":"-0.00057710000000","ARG_OF_PERICENTER":"47.0761","ELEMENT_SET_NO":"999","ECCENTRICITY":"0.00015800","INCLINATION":"53.2160","EPOCH":"2022-10-17T22:00:00.999936","PERIAPSIS":"348.557","MEAN_MOTION_DDOT":"0.0000000000000","NORAD_CAT_ID":"53898","MEAN_ANOMALY":"247.3679","TLE_LINE2":"2 53898  53.2160 139.4176 0001580  47.0761 247.3679 15.73249168  1300","GP_ID":"215451973","REF_FRAME":"TEME","OBJECT_ID":"2022-119N","MEAN_MOTION":"15.73249168","APOAPSIS":"350.683","PERIOD":"91.530","LAUNCH_DATE":"2022-09-24","MEAN_ELEMENT_THEORY":"SGP4","RCS_SIZE":"LARGE"},{"GP_ID":"215452536","TLE_LINE2":"2 53899  53.2162 139.4193 0001454  51.4704 242.3430 15.73209606  1301","MEAN_ANOMALY":"242.3430","OBJECT_ID":"2022-119P","REF_FRAME":"TEME","PERIAPSIS":"348.755","NORAD_CAT_ID":"53899","MEAN_MOTION_DDOT":"0.0000000000000","LAUNCH_DATE":"2022-09-24","RCS_SIZE":"LARGE","MEAN_ELEMENT_THEORY":"SGP4","APOAPSIS":"350.711","MEAN_MOTION":"15.73209606","PERIOD":"91.533","OBJECT_NAME":"STARLINK-5042","REV_AT_EPOCH":"130","OBJECT_TYPE":"PAYLOAD","CLASSIFICATION_TYPE":"U","BSTAR":"0.00003630600000","TLE_LINE1":"1 53899U 22119P   22290.91667824  .00004480  00000-0  36306-4 0  9995","COUNTRY_CODE":"US","ECCENTRICITY":"0.00014540","EPOCH":"2022-10-17T22:00:00.999936","ELEMENT_SET_NO":"999","INCLINATION":"53.2162","ARG_OF_PERICENTER":"51.4704","RA_OF_ASC_NODE":"139.4193","SEMIMAJOR_AXIS":"6727.868","DECAY_DATE":null,"CENTER_NAME":"EARTH","FILE":"3620294","TIME_SYSTEM":"UTC","EPHEMERIS_TYPE":"0","MEAN_MOTION_DOT":"0.00004480","SITE":"AFETR"},{"TLE_LINE2":"2 53900  53.2173 139.4133 0001565  38.7467 256.9139 15.73219784  1302","GP_ID":"215451389","MEAN_ANOMALY":"256.9139","REF_FRAME":"TEME","OBJECT_ID":"2022-119Q","PERIAPSIS":"348.651","NORAD_CAT_ID":"53900","MEAN_MOTION_DDOT":"0.0000000000000","LAUNCH_DATE":"2022-09-24","MEAN_ELEMENT_THEORY":"SGP4","RCS_SIZE":"LARGE","MEAN_MOTION":"15.73219784","APOAPSIS":"350.757","PERIOD":"91.532","OBJECT_NAME":"STARLINK-5045","REV_AT_EPOCH":"130","OBJECT_TYPE":"PAYLOAD","CLASSIFICATION_TYPE":"U","COUNTRY_CODE":"US","TLE_LINE1":"1 53900U 22119Q   22290.91667824 -.00038773  00000-0 -27287-3 0  9999","BSTAR":"-0.00027287000000","ARG_OF_PERICENTER":"38.7467","ECCENTRICITY":"0.00015650","EPOCH":"2022-10-17T22:00:00.999936","ELEMENT_SET_NO":"999","INCLINATION":"53.2173","SEMIMAJOR_AXIS":"6727.839","RA_OF_ASC_NODE":"139.4133","DECAY_DATE":null,"TIME_SYSTEM":"UTC","FILE":"3620294","EPHEMERIS_TYPE":"0","CENTER_NAME":"EARTH","SITE":"AFETR","MEAN_MOTION_DOT":"-0.00038773"},{"OBJECT_TYPE":"PAYLOAD","CLASSIFICATION_TYPE":"U","OBJECT_NAME":"STARLINK-5024","REV_AT_EPOCH":"130","DECAY_DATE":null,"RA_OF_ASC_NODE":"139.4197","SEMIMAJOR_AXIS":"6727.907","MEAN_MOTION_DOT":"-0.00013334","SITE":"AFETR","TIME_SYSTEM":"UTC","FILE":"3620294","CENTER_NAME":"EARTH","EPHEMERIS_TYPE":"0","BSTAR":"-0.00009075900000","COUNTRY_CODE":"US","TLE_LINE1":"1 53901U 22119R   22290.91667824 -.00013334  00000-0 -90759-4 0  9991","EPOCH":"2022-10-17T22:00:00.999936","ECCENTRICITY":"0.00011880","INCLINATION":"53.2161","ELEMENT_SET_NO":"999","ARG_OF_PERICENTER":"102.3209","PERIAPSIS":"348.973","MEAN_MOTION_DDOT":"0.0000000000000","NORAD_CAT_ID":"53901","MEAN_ANOMALY":"190.9540","GP_ID":"215452384","TLE_LINE2":"2 53901  53.2161 139.4197 0001188 102.3209 190.9540 15.73195813  1302","OBJECT_ID":"2022-119R","REF_FRAME":"TEME","APOAPSIS":"350.571","MEAN_MOTION":"15.73195813","PERIOD":"91.533","LAUNCH_DATE":"2022-09-24","RCS_SIZE":"LARGE","MEAN_ELEMENT_THEORY":"SGP4"},{"SITE":"AFETR","MEAN_MOTION_DOT":"0.00300409","TIME_SYSTEM":"UTC","FILE":"3603543","EPHEMERIS_TYPE":"0","CENTER_NAME":"EARTH","DECAY_DATE":null,"RA_OF_ASC_NODE":"172.7910","SEMIMAJOR_AXIS":"6728.057","EPOCH":"2022-10-11T04:00:00.999936","INCLINATION":"53.2172","ECCENTRICITY":"0.00010930","ELEMENT_SET_NO":"999","ARG_OF_PERICENTER":"89.3094","BSTAR":"0.00207420000000","COUNTRY_CODE":"US","TLE_LINE1":"1 53902U 22119S   22284.16667824  .00300409  00000-0  20742-2 0  9995","CLASSIFICATION_TYPE":"U","OBJECT_TYPE":"PAYLOAD","REV_AT_EPOCH":"130","OBJECT_NAME":"STARLINK-5021","PERIOD":"91.536","APOAPSIS":"350.657","MEAN_MOTION":"15.73143355","RCS_SIZE":null,"MEAN_ELEMENT_THEORY":"SGP4","LAUNCH_DATE":"2022-09-24","NORAD_CAT_ID":"53902","MEAN_MOTION_DDOT":"0.0000000000000","PERIAPSIS":"349.186","OBJECT_ID":"2022-119S","REF_FRAME":"TEME","MEAN_ANOMALY":"118.4046","GP_ID":"214785313","TLE_LINE2":"2 53902  53.2172 172.7910 0001093  89.3094 118.4046 15.73143355  1309"},{"NORAD_CAT_ID":"53903","MEAN_MOTION_DDOT":"0.0000000000000","PERIAPSIS":"348.948","OBJECT_ID":"2022-119T","REF_FRAME":"TEME","GP_ID":"215452292","TLE_LINE2":"2 53903  53.2162 139.4163 0001093  86.4448 208.5891 15.73226872  1305","MEAN_ANOMALY":"208.5891","PERIOD":"91.532","APOAPSIS":"350.419","MEAN_MOTION":"15.73226872","RCS_SIZE":"LARGE","MEAN_ELEMENT_THEORY":"SGP4","LAUNCH_DATE":"2022-09-24","CLASSIFICATION_TYPE":"U","OBJECT_TYPE":"PAYLOAD","REV_AT_EPOCH":"130","OBJECT_NAME":"STARLINK-5022","FILE":"3620294","TIME_SYSTEM":"UTC","EPHEMERIS_TYPE":"0","CENTER_NAME":"EARTH","SITE":"AFETR","MEAN_MOTION_DOT":"-0.00033640","RA_OF_ASC_NODE":"139.4163","SEMIMAJOR_AXIS":"6727.819","DECAY_DATE":null,"EPOCH":"2022-10-17T22:00:00.999936","ECCENTRICITY":"0.00010930","INCLINATION":"53.2162","ELEMENT_SET_NO":"999","ARG_OF_PERICENTER":"86.4448","BSTAR":"-0.00023596000000","COUNTRY_CODE":"US","TLE_LINE1":"1 53903U 22119T   22290.91667824 -.00033640  00000-0 -23596-3 0  9999"}];
